      2.10          N: GNSS NAV DATA                        RINEX VERSION / TYPE
fic2rin                                 10/31/2023 00:17:44 PGM / RUN BY / DATE
                                                            END OF HEADER
3  23 10 30  2  0  0.0 -.478718429804D-04  .241016095970D-10  .000000000000D+00
     .330000000000D+02 -.247500000000D+02  .373444126875D-08 -.208373981665D+01
    -.118091702461D-05  .510089227464D-02  .120084732771D-04  .515357799721D+04
     .936000000000D+05  .800937414169D-07  .545600079942D+00 -.204890966415D-07
     .981394634820D+00  .160781250000D+03  .111793618006D+01 -.742816655581D-08
     .530736393015D-09  .100000000000D+01  .228600000000D+04  .000000000000D+00
     .240000000000D+01  .000000000000D+00  .186264514923D-08  .330000000000D+02
     .864000000000D+05  .400000000000D+01
2  23 10 30  2  0  0.0 -.535688828677D-03  .488853402203D-11  .000000000000D+00
     .710000000000D+02 -.157406250000D+03  .430267922386D-08  .174347580485D+01
    -.849924981594D-05  .161404393148D-01  .550970435143D-05  .515374181938D+04
     .936000000000D+05  .296160578728D-06 -.585014426988D+00 -.176951289177D-06
     .967762709190D+00  .271750000000D+03 -.132454908309D+01 -.800604776974D-08
    -.524307553800D-09  .100000000000D+01  .228600000000D+04  .000000000000D+00
     .240000000000D+01  .000000000000D+00 -.176951289177D-07  .710000000000D+02
     .864000000000D+05  .400000000000D+01
1  23 10 30  2  0  0.0  .163316261023D-03 -.227373675443D-12  .000000000000D+00
     .100000000000D+02 -.144593750000D+03  .383837416941D-08 -.888175212657D+00
    -.749528408051D-05  .128957256675D-01  .756233930588D-05  .515363647461D+04
     .936000000000D+05  .968575477600D-07 -.483019971606D+00  .309199094772D-06
     .990656107318D+00  .247937500000D+03  .990302642903D+00 -.793247327650D-08
    -.468948104999D-09  .100000000000D+01  .228600000000D+04  .000000000000D+00
     .240000000000D+01  .630000000000D+02  .512227416039D-08  .100000000000D+02
     .864000000000D+05  .400000000000D+01
4  23 10 30  2  0  0.0  .198556110263D-03  .105728759081D-10  .000000000000D+00
     .218000000000D+03  .371875000000D+01  .485305929226D-08  .952277061545D+00
     .275671482086D-06  .264998793136D-02  .476464629173D-05  .515359977913D+04
     .936000000000D+05  .372529029846D-08  .162591574457D+01  .100582838058D-06
     .963117493709D+00  .287812500000D+03 -.305448666221D+01 -.816534011919D-08
     .126790995640D-09  .100000000000D+01  .228600000000D+04  .000000000000D+00
     .240000000000D+01  .000000000000D+00 -.419095158577D-08  .986000000000D+03
     .864000000000D+05  .400000000000D+01
32 23 10 30 10  0  0.0 -.579473096877D-03 -.488853402203D-11  .000000000000D+00
     .320000000000D+02  .762500000000D+01  .513414242907D-08 -.129078009303D+00
     .422820448875D-06  .707098166458D-02  .508874654770D-05  .515357903671D+04
     .122400000000D+06 -.372529029846D-08  .158155417577D+01  .596046447754D-07
     .960066224029D+00  .281468750000D+03 -.222341880037D+01 -.837963475971D-08
     .817891211309D-10  .100000000000D+01  .228600000000D+04  .000000000000D+00
     .240000000000D+01  .000000000000D+00  .465661287308D-09  .320000000000D+02
     .115200000000D+06  .400000000000D+01
24 23 10 30 10  0  0.0 -.359005294740D-03 -.943600753089D-11  .000000000000D+00
     .240000000000D+02 -.264062500000D+02  .504878173060D-08 -.266382558632D+01
    -.135973095894D-05  .147605494130D-01  .894628465176D-05  .515362881088D+04
     .122400000000D+06  .191852450371D-06  .254665847315D+01 -.145286321640D-06
     .934091085100D+00  .189843750000D+03  .936759893867D+00 -.799461872225D-08
    -.617882880159D-09  .100000000000D+01  .228600000000D+04  .000000000000D+00
     .240000000000D+01  .000000000000D+00  .232830643654D-08  .240000000000D+02
     .115200000000D+06  .400000000000D+01
16 23 10 30 10  0  0.0 -.430725980550D-03  .636646291241D-11  .000000000000D+00
     .270000000000D+02  .125093750000D+03  .417731685916D-08  .152915921470D+00
     .675953924656D-05  .135524350917D-01  .891834497452D-05  .515368626976D+04
     .122400000000D+06 -.149011611938D-07 -.251044244246D+01  .264495611191D-06
     .963955388817D+00  .209406250000D+03  .799232864103D+00 -.809033699501D-08
     .162863926793D-09  .100000000000D+01  .228600000000D+04  .000000000000D+00
     .240000000000D+01  .000000000000D+00 -.102445483208D-07  .270000000000D+02
     .115200000000D+06  .400000000000D+01
30 23 10 30 10  0  0.0 -.473499298096D-03  .386535248253D-11  .000000000000D+00
     .680000000000D+02 -.178437500000D+02  .501449458811D-08  .249878138494D+01
    -.110082328320D-05  .658857845701D-02  .951997935772D-05  .515374407196D+04
     .122400000000D+06 -.782310962677D-07  .264377161563D+01 -.465661287308D-07
     .935678681836D+00  .182843750000D+03 -.255228813302D+01 -.808212236712D-08
    -.690743057935D-09  .100000000000D+01  .228600000000D+04  .000000000000D+00
     .240000000000D+01  .000000000000D+00  .372529029846D-08  .680000000000D+02
     .115200000000D+06  .400000000000D+01
22 23 10 30 10  0  0.0  .933003611863D-04 -.716227077646D-11  .000000000000D+00
     .350000000000D+02  .124937500000D+03  .424946272147D-08 -.253280791442D+00
     .647269189358D-05  .151163927512D-01  .849552452564D-05  .515373294830D+04
     .122400000000D+06 -.299885869026D-06 -.250714239332D+01 -.141561031342D-06
     .963229651250D+00  .221312500000D+03 -.117269774174D+01 -.811390940547D-08
     .223223583873D-09  .100000000000D+01  .228600000000D+04  .000000000000D+00
     .240000000000D+01  .000000000000D+00 -.111758708954D-07  .350000000000D+02
     .115200000000D+06  .400000000000D+01
15 23 10 30 10  0  0.0  .921394675970D-04  .375166564481D-11  .000000000000D+00
     .330000000000D+02  .198750000000D+02  .553380193363D-08 -.189104271997D+01
     .119395554066D-05  .155089010950D-01  .485591590405D-05  .515378428841D+04
     .122400000000D+06  .301748514175D-06  .144524275340D+01  .651925802231D-07
     .933097945126D+00  .267906250000D+03  .126213355597D+01 -.829213111483D-08
     .324656380384D-09  .100000000000D+01  .228600000000D+04  .000000000000D+00
     .240000000000D+01  .000000000000D+00 -.107102096081D-07  .330000000000D+02
     .115200000000D+06  .400000000000D+01
17 23 10 30 10  0  0.0  .723596662283D-03 -.341060513165D-12  .000000000000D+00
     .410000000000D+02  .175937500000D+02  .467840916023D-08 -.812520303246D+00
     .985339283943D-06  .138361548306D-01  .845640897751D-06  .515360293770D+04
     .122400000000D+06 -.162050127983D-06 -.148881216668D+01  .633299350739D-07
     .971711590294D+00  .375843750000D+03 -.138484111880D+01 -.862714506951D-08
     .225723688012D-09  .100000000000D+01  .228600000000D+04  .000000000000D+00
     .240000000000D+01  .000000000000D+00 -.111758708954D-07  .410000000000D+02
     .115200000000D+06  .400000000000D+01
21 23 10 30 10  0  0.0  .145553611219D-03 -.909494701773D-12  .000000000000D+00
     .105000000000D+03 -.126625000000D+03  .456304721209D-08 -.818637108984D+00
    -.692345201969D-05  .248222954106D-01  .586546957493D-05  .515376143074D+04
     .122400000000D+06 -.260770320892D-06 -.591191317697D+00 -.318512320518D-06
     .962030984452D+00  .269375000000D+03 -.690857369257D+00 -.847070998193D-08
     .771460705864D-10  .100000000000D+01  .228600000000D+04  .000000000000D+00
     .240000000000D+01  .000000000000D+00 -.102445483208D-07  .105000000000D+03
     .115200000000D+06  .400000000000D+01
20 23 10 30 10  0  0.0  .404207501560D-03 -.193267624127D-11  .000000000000D+00
     .570000000000D+02 -.533437500000D+02  .451947396852D-08 -.216295783713D+01
    -.271946191788D-05  .410057744011D-02  .124629586935D-04  .515365185356D+04
     .122400000000D+06  .279396772385D-07  .371685754204D+00 -.102445483208D-06
     .951037634923D+00  .130718750000D+03 -.279868436176D+01 -.788675708652D-08
     .451447376024D-09  .100000000000D+01  .228600000000D+04  .000000000000D+00
     .240000000000D+01  .000000000000D+00 -.838190317154D-08  .570000000000D+02
     .115200000000D+06  .400000000000D+01
26 23 10 30 10  0  0.0  .220016576350D-03 -.250111042988D-11  .000000000000D+00
     .470000000000D+02  .125781250000D+03  .468448084172D-08  .969503141366D+00
     .673346221447D-05  .842561677564D-02  .106785446405D-04  .515378694534D+04
     .122400000000D+06 -.134110450745D-06 -.267122358645D+01  .124797224998D-06
     .933035111332D+00  .157375000000D+03  .486142753111D+00 -.816462580372D-08
    -.864321716755D-10  .100000000000D+01  .228600000000D+04  .000000000000D+00
     .240000000000D+01  .000000000000D+00  .698491930962D-08  .470000000000D+02
     .115200000000D+06  .400000000000D+01
13 23 10 30 10  0  0.0  .589737668633D-03  .420641299570D-11  .000000000000D+00
     .860000000000D+02 -.340625000000D+01  .482627246219D-08 -.120080374374D+01
    -.171363353729D-06  .765327247791D-02  .491365790367D-05  .515365232468D+04
     .122400000000D+06  .149011611938D-06  .173053403276D+01  .137835741043D-06
     .969952671222D+00  .289656250000D+03  .950917533738D+00 -.810140888477D-08
    -.116433421348D-09  .100000000000D+01  .228600000000D+04  .000000000000D+00
     .240000000000D+01  .000000000000D+00 -.116415321827D-07  .860000000000D+02
     .115200000000D+06  .400000000000D+01
19 23 10 30 10  0  0.0  .391974113882D-03  .522959453519D-11  .000000000000D+00
     .520000000000D+02  .975000000000D+01  .461162066394D-08  .124494026453D+01
     .448897480965D-06  .936456827912D-02 -.558793544769D-07  .515365743256D+04
     .122400000000D+06  .264495611191D-06 -.144434367905D+01 -.149011611938D-07
     .970837888803D+00  .385000000000D+03  .243991162160D+01 -.839856411962D-08
     .839320675361D-10  .100000000000D+01  .228600000000D+04  .000000000000D+00
     .240000000000D+01  .000000000000D+00 -.153668224812D-07  .520000000000D+02
     .115200000000D+06  .400000000000D+01
